0 IRIDIUM 33 DEB
1 34893U 97051MV  13281.76413108  .00008705  00000-0  29422-2 0  8129
2 34893 086.1569 096.5219 0050881 012.9615 347.3360 14.36223490241425
0 IRIDIUM 33 DEB
1 34893U 97051MV  13281.77556949  .00009214  00000-0  31038-2 0  8123
2 34893 086.1584 096.5163 0050784 013.4366 045.9715 14.36225326241426
0 IRIDIUM 33 DEB
1 34893U 97051MV  13283.50586549  .00007667  00000-0  25900-2 0  8137
2 34893 086.1567 095.7433 0050621 008.1615 352.0879 14.36257337241673
0 IRIDIUM 33 DEB
1 34893U 97051MV  13283.79670321  .00013680  00000-0  46044-2 0  8134
2 34893 086.1590 095.6128 0050619 006.8172 056.2926 14.36274862241712
0 IRIDIUM 33 DEB
1 34893U 97051MV  13286.51340468  .00010114  00000-0  34011-2 0  8144
2 34893 086.1573 094.3966 0050349 357.7561 063.7001 14.36326450242101
0 IRIDIUM 33 DEB
1 34893U 97051MV  13288.74207299  .00014788  00000-0  49671-2 0  8155
2 34893 086.1569 093.3991 0050337 350.0547 068.2886 14.36381715242421
0 IRIDIUM 33 DEB
1 34893U 97051MV  13290.91975311  .00013232  00000-0  44388-2 0  8168
2 34893 086.1564 092.4269 0050739 342.2322 169.9368 14.36435077242733
0 IRIDIUM 33 DEB
1 34893U 97051MV  13292.42848771  .00013378  00000-0  44850-2 0  8171
2 34893 086.1586 091.7537 0050581 337.3899 051.8736 14.36470064242953
0 IRIDIUM 33 DEB
1 34893U 97051MV  13293.75859064  .00015251  00000-0  51091-2 0  8183
2 34893 086.1584 091.1582 0050813 332.6152 090.7429 14.36498992243146
0 IRIDIUM 33 DEB
1 34893U 97051MV  13295.42414912  .00017623  00000-0  58966-2 0  8192
2 34893 086.1589 090.4139 0051028 326.8653 064.4613 14.36541514243389
